SL-14 R/B               
1 16792U 86046B   26009.06229831  .00000545  00000+0  59916-4 0  9994
2 16792  82.4831 136.5119 0024439  66.6457 293.7326 14.85522112117557
SL-14 R/B               
1 16882U 86055B   26009.21525691  .00000552  00000+0  60852-4 0  9993
2 16882  82.5200 182.5542 0019264 164.8044   7.8385 14.85565400110539
AJISAI (EGS)            
1 16908U 86061A   26009.30658002 -.00000082  00000+0  11105-3 0  9997
2 16908  50.0094 275.9525 0011310 135.1017  15.9620 12.44514792460601
COSMOS 1812             
1 17295U 87003A   26009.17660526  .00126397  00000+0  59987-3 0  9990
2 17295  82.4834 262.1758 0003753  56.2989 303.8637 15.82568392134987
SL-14 R/B               
1 17567U 87024B   26009.31936330  .00000694  00000+0  76213-4 0  9993
2 17567  82.5293 148.5468 0019726  97.0133 263.3327 14.86062685 79313
COSMOS 1833             
1 17589U 87027A   26009.25538285  .00000342  00000+0  20851-3 0  9996
2 17589  70.9188  90.9385 0023859 293.6492  66.2125 14.13039743  1920
SL-16 R/B               
1 17590U 87027B   26009.33060748  .00000237  00000+0  14108-3 0  9992
2 17590  71.0031  41.5785 0006687 230.1127 129.9410 14.17158712  6930
SL-14 R/B               
1 17912U 87038B   26009.21637960  .00000547  00000+0  60752-4 0  9996
2 17912  82.5019 352.8179 0019449   6.1334 354.0116 14.85295020 70403
COSMOS 1844             
1 17973U 87041A   26009.14109683 -.00000069  00000+0 -10586-4 0  9996
2 17973  70.8992 159.7774 0028460 113.6145 246.7969 14.14539244995165
SL-14 R/B               
1 18153U 87055B   26009.20349268  .00000416  00000+0  45195-4 0  9992
2 18153  82.4980  45.1016 0019968 206.4601 153.5597 14.85553865 61103
COSMOS 1867             
1 18187U 87060A   26008.98886708  .00000004  00000+0  38977-4 0  9997
2 18187  65.0111 113.8949 0013791 273.7884  86.1623 14.31491875 11399
SL-14 R/B               
1 18749U 88001B   26009.12753659  .00000420  00000+0  45681-4 0  9994
2 18749  82.5121 251.3888 0019577  76.3452 283.9942 14.85456818 33183
