CCSDS_OMM_VERS = 2.0
CREATION_DATE  = 
ORIGINATOR     = 

OBJECT_NAME    = SL-14 R/B
OBJECT_ID      = 1986-046B
CENTER_NAME    = EARTH
REF_FRAME      = TEME
TIME_SYSTEM    = UTC
MEAN_ELEMENT_THEORY = SGP/SGP4

EPOCH          = 2026-01-09T01:29:42.573984
MEAN_MOTION    = 14.85522112
ECCENTRICITY   = .00244397
INCLINATION    = 82.4831
RA_OF_ASC_NODE = 136.5119
ARG_OF_PERICENTER = 66.6457
MEAN_ANOMALY   = 293.7326

EPHEMERIS_TYPE = 0
CLASSIFICATION_TYPE = U
NORAD_CAT_ID   = 16792
ELEMENT_SET_NO = 999
REV_AT_EPOCH   = 11755
BSTAR          = .59916058E-4
MEAN_MOTION_DOT = .545E-5
MEAN_MOTION_DDOT = 0

CCSDS_OMM_VERS = 2.0
CREATION_DATE  = 
ORIGINATOR     = 

OBJECT_NAME    = SL-14 R/B
OBJECT_ID      = 1986-055B
CENTER_NAME    = EARTH
REF_FRAME      = TEME
TIME_SYSTEM    = UTC
MEAN_ELEMENT_THEORY = SGP/SGP4

EPOCH          = 2026-01-09T05:09:58.197024
MEAN_MOTION    = 14.85565400
ECCENTRICITY   = .00192648
INCLINATION    = 82.5200
RA_OF_ASC_NODE = 182.5542
ARG_OF_PERICENTER = 164.8044
MEAN_ANOMALY   = 7.8385

EPHEMERIS_TYPE = 0
CLASSIFICATION_TYPE = U
NORAD_CAT_ID   = 16882
ELEMENT_SET_NO = 999
REV_AT_EPOCH   = 11053
BSTAR          = .60852062E-4
MEAN_MOTION_DOT = .552E-5
MEAN_MOTION_DDOT = 0

CCSDS_OMM_VERS = 2.0
CREATION_DATE  = 
ORIGINATOR     = 

OBJECT_NAME    = AJISAI (EGS)
OBJECT_ID      = 1986-061A
CENTER_NAME    = EARTH
REF_FRAME      = TEME
TIME_SYSTEM    = UTC
MEAN_ELEMENT_THEORY = SGP/SGP4

EPOCH          = 2026-01-09T07:21:28.513728
MEAN_MOTION    = 12.44514792
ECCENTRICITY   = .00113105
INCLINATION    = 50.0094
RA_OF_ASC_NODE = 275.9525
ARG_OF_PERICENTER = 135.1017
MEAN_ANOMALY   = 15.9620

EPHEMERIS_TYPE = 0
CLASSIFICATION_TYPE = U
NORAD_CAT_ID   = 16908
ELEMENT_SET_NO = 999
REV_AT_EPOCH   = 46060
BSTAR          = .11105226E-3
MEAN_MOTION_DOT = -.82E-6
MEAN_MOTION_DDOT = 0

CCSDS_OMM_VERS = 2.0
CREATION_DATE  = 
ORIGINATOR     = 

OBJECT_NAME    = COSMOS 1812
OBJECT_ID      = 1987-003A
CENTER_NAME    = EARTH
REF_FRAME      = TEME
TIME_SYSTEM    = UTC
MEAN_ELEMENT_THEORY = SGP/SGP4

EPOCH          = 2026-01-09T04:14:18.694464
MEAN_MOTION    = 15.82568392
ECCENTRICITY   = .00037534
INCLINATION    = 82.4834
RA_OF_ASC_NODE = 262.1758
ARG_OF_PERICENTER = 56.2989
MEAN_ANOMALY   = 303.8637

EPHEMERIS_TYPE = 0
CLASSIFICATION_TYPE = U
NORAD_CAT_ID   = 17295
ELEMENT_SET_NO = 999
REV_AT_EPOCH   = 13498
BSTAR          = .59986703E-3
MEAN_MOTION_DOT = .126397E-2
MEAN_MOTION_DDOT = 0

CCSDS_OMM_VERS = 2.0
CREATION_DATE  = 
ORIGINATOR     = 

OBJECT_NAME    = SL-14 R/B
OBJECT_ID      = 1987-024B
CENTER_NAME    = EARTH
REF_FRAME      = TEME
TIME_SYSTEM    = UTC
MEAN_ELEMENT_THEORY = SGP/SGP4

EPOCH          = 2026-01-09T07:39:52.989120
MEAN_MOTION    = 14.86062685
ECCENTRICITY   = .00197264
INCLINATION    = 82.5293
RA_OF_ASC_NODE = 148.5468
ARG_OF_PERICENTER = 97.0133
MEAN_ANOMALY   = 263.3327

EPHEMERIS_TYPE = 0
CLASSIFICATION_TYPE = U
NORAD_CAT_ID   = 17567
ELEMENT_SET_NO = 999
REV_AT_EPOCH   = 7931
BSTAR          = .7621326E-4
MEAN_MOTION_DOT = .694E-5
MEAN_MOTION_DDOT = 0

CCSDS_OMM_VERS = 2.0
CREATION_DATE  = 
ORIGINATOR     = 

OBJECT_NAME    = COSMOS 1833
OBJECT_ID      = 1987-027A
CENTER_NAME    = EARTH
REF_FRAME      = TEME
TIME_SYSTEM    = UTC
MEAN_ELEMENT_THEORY = SGP/SGP4

EPOCH          = 2026-01-09T06:07:45.078240
MEAN_MOTION    = 14.13039743
ECCENTRICITY   = .00238597
INCLINATION    = 70.9188
RA_OF_ASC_NODE = 90.9385
ARG_OF_PERICENTER = 293.6492
MEAN_ANOMALY   = 66.2125

EPHEMERIS_TYPE = 0
CLASSIFICATION_TYPE = U
NORAD_CAT_ID   = 17589
ELEMENT_SET_NO = 999
REV_AT_EPOCH   = 192
BSTAR          = .20850672E-3
MEAN_MOTION_DOT = .342E-5
MEAN_MOTION_DDOT = 0

CCSDS_OMM_VERS = 2.0
CREATION_DATE  = 
ORIGINATOR     = 

OBJECT_NAME    = SL-16 R/B
OBJECT_ID      = 1987-027B
CENTER_NAME    = EARTH
REF_FRAME      = TEME
TIME_SYSTEM    = UTC
MEAN_ELEMENT_THEORY = SGP/SGP4

EPOCH          = 2026-01-09T07:56:04.486272
MEAN_MOTION    = 14.17158712
ECCENTRICITY   = .00066878
INCLINATION    = 71.0031
RA_OF_ASC_NODE = 41.5785
ARG_OF_PERICENTER = 230.1127
MEAN_ANOMALY   = 129.9410

EPHEMERIS_TYPE = 0
CLASSIFICATION_TYPE = U
NORAD_CAT_ID   = 17590
ELEMENT_SET_NO = 999
REV_AT_EPOCH   = 693
BSTAR          = .14107677E-3
MEAN_MOTION_DOT = .237E-5
MEAN_MOTION_DDOT = 0

CCSDS_OMM_VERS = 2.0
CREATION_DATE  = 
ORIGINATOR     = 

OBJECT_NAME    = SL-14 R/B
OBJECT_ID      = 1987-038B
CENTER_NAME    = EARTH
REF_FRAME      = TEME
TIME_SYSTEM    = UTC
MEAN_ELEMENT_THEORY = SGP/SGP4

EPOCH          = 2026-01-09T05:11:35.197440
MEAN_MOTION    = 14.85295020
ECCENTRICITY   = .00194494
INCLINATION    = 82.5019
RA_OF_ASC_NODE = 352.8179
ARG_OF_PERICENTER = 6.1334
MEAN_ANOMALY   = 354.0116

EPHEMERIS_TYPE = 0
CLASSIFICATION_TYPE = U
NORAD_CAT_ID   = 17912
ELEMENT_SET_NO = 999
REV_AT_EPOCH   = 7040
BSTAR          = .60752281E-4
MEAN_MOTION_DOT = .547E-5
MEAN_MOTION_DDOT = 0

CCSDS_OMM_VERS = 2.0
CREATION_DATE  = 
ORIGINATOR     = 

OBJECT_NAME    = COSMOS 1844
OBJECT_ID      = 1987-041A
CENTER_NAME    = EARTH
REF_FRAME      = TEME
TIME_SYSTEM    = UTC
MEAN_ELEMENT_THEORY = SGP/SGP4

EPOCH          = 2026-01-09T03:23:10.766112
MEAN_MOTION    = 14.14539244
ECCENTRICITY   = .00284603
INCLINATION    = 70.8992
RA_OF_ASC_NODE = 159.7774
ARG_OF_PERICENTER = 113.6145
MEAN_ANOMALY   = 246.7969

EPHEMERIS_TYPE = 0
CLASSIFICATION_TYPE = U
NORAD_CAT_ID   = 17973
ELEMENT_SET_NO = 999
REV_AT_EPOCH   = 99516
BSTAR          = -.10585556E-4
MEAN_MOTION_DOT = -.69E-6
MEAN_MOTION_DDOT = 0

CCSDS_OMM_VERS = 2.0
CREATION_DATE  = 
ORIGINATOR     = 

OBJECT_NAME    = SL-14 R/B
OBJECT_ID      = 1987-055B
CENTER_NAME    = EARTH
REF_FRAME      = TEME
TIME_SYSTEM    = UTC
MEAN_ELEMENT_THEORY = SGP/SGP4

EPOCH          = 2026-01-09T04:53:01.767552
MEAN_MOTION    = 14.85553865
ECCENTRICITY   = .00199682
INCLINATION    = 82.4980
RA_OF_ASC_NODE = 45.1016
ARG_OF_PERICENTER = 206.4601
MEAN_ANOMALY   = 153.5597

EPHEMERIS_TYPE = 0
CLASSIFICATION_TYPE = U
NORAD_CAT_ID   = 18153
ELEMENT_SET_NO = 999
REV_AT_EPOCH   = 6110
BSTAR          = .45194514E-4
MEAN_MOTION_DOT = .416E-5
MEAN_MOTION_DDOT = 0

CCSDS_OMM_VERS = 2.0
CREATION_DATE  = 
ORIGINATOR     = 

OBJECT_NAME    = COSMOS 1867
OBJECT_ID      = 1987-060A
CENTER_NAME    = EARTH
REF_FRAME      = TEME
TIME_SYSTEM    = UTC
MEAN_ELEMENT_THEORY = SGP/SGP4

EPOCH          = 2026-01-08T23:43:58.116576
MEAN_MOTION    = 14.31491875
ECCENTRICITY   = .00137908
INCLINATION    = 65.0111
RA_OF_ASC_NODE = 113.8949
ARG_OF_PERICENTER = 273.7884
MEAN_ANOMALY   = 86.1623

EPHEMERIS_TYPE = 0
CLASSIFICATION_TYPE = U
NORAD_CAT_ID   = 18187
ELEMENT_SET_NO = 999
REV_AT_EPOCH   = 1139
BSTAR          = .38976773E-4
MEAN_MOTION_DOT = .4E-7
MEAN_MOTION_DDOT = 0

CCSDS_OMM_VERS = 2.0
CREATION_DATE  = 
ORIGINATOR     = 

OBJECT_NAME    = SL-14 R/B
OBJECT_ID      = 1988-001B
CENTER_NAME    = EARTH
REF_FRAME      = TEME
TIME_SYSTEM    = UTC
MEAN_ELEMENT_THEORY = SGP/SGP4

EPOCH          = 2026-01-09T03:03:39.161376
MEAN_MOTION    = 14.85456818
ECCENTRICITY   = .00195773
INCLINATION    = 82.5121
RA_OF_ASC_NODE = 251.3888
ARG_OF_PERICENTER = 76.3452
MEAN_ANOMALY   = 283.9942

EPHEMERIS_TYPE = 0
CLASSIFICATION_TYPE = U
NORAD_CAT_ID   = 18749
ELEMENT_SET_NO = 999
REV_AT_EPOCH   = 3318
BSTAR          = .45680855E-4
MEAN_MOTION_DOT = .42E-5
MEAN_MOTION_DDOT = 0

